CCSDS_OMM_VERS,COMMENT,CREATION_DATE,ORIGINATOR,OBJECT_NAME,OBJECT_ID,CENTER_NAME,REF_FRAME,TIME_SYSTEM,MEAN_ELEMENT_THEORY,EPOCH,MEAN_MOTION,ECCENTRICITY,INCLINATION,RA_OF_ASC_NODE,ARG_OF_PERICENTER,MEAN_ANOMALY,EPHEMERIS_TYPE,CLASSIFICATION_TYPE,NORAD_CAT_ID,ELEMENT_SET_NO,REV_AT_EPOCH,BSTAR,MEAN_MOTION_DOT,MEAN_MOTION_DDOT,SEMIMAJOR_AXIS,PERIOD,APOAPSIS,PERIAPSIS,OBJECT_TYPE,RCS_SIZE,COUNTRY_CODE,LAUNCH_DATE,SITE,DECAY_DATE,FILE,GP_ID,TLE_LINE0,TLE_LINE1,TLE_LINE2,NORAD_KEY,JCAT,DeepCat,Satcat,Piece,Active,Type,Name,LDate,Parent,Owner,State,SDate,ExpandedStatus,DDate,ODate,Period,Perigee,PF,Apogee,AF,Inc,IF,OpOrbit,SATCAT_KEY
3.0,GENERATED VIA SPACE-TRACK.ORG API,2026-05-06T14:56:52,18 SPCS,THAICOM 1,1993-078B,EARTH,TEME,UTC,SGP4,2026-05-06T13:13:55.833888,0.99184923,0.0004175,11.8475,35.1255,226.8947,352.9939,0,U,22931,999,4575,0.00000000000000,-0.00000068,0.0000000000000,42472.198,1451.834,36111.795,36076.331,PAYLOAD,MEDIUM,THAI,1993-12-18,FRGUI,,5177491,322305504,0 THAICOM 1,1 22931U 93078B   26126.55134067 -.00000068  00000-0  00000+0 0  9996,2 22931  11.8475  35.1255 0004175 226.8947 352.9939  0.99184923 45757,22931,S22931,-,22931,1993-078B,P,P,Thaicom 1,1993 Dec 18,S22932,THAIC,T,1993 Dec 18 0152,In Earth orbit,-,2026 May  4 ,    1451.845 ,   36076, ,   36112, , 11.84 , ,GEO/ID,22931
3.0,GENERATED VIA SPACE-TRACK.ORG API,2026-05-06T14:56:52,18 SPCS,THAICOM 1,1993-078B,EARTH,TEME,UTC,SGP4,2026-05-06T13:13:55.833888,0.99184923,0.0004175,11.8475,35.1255,226.8947,352.9939,0,U,22931,999,4575,0.00000000000000,-0.00000068,0.0000000000000,42472.198,1451.834,36111.795,36076.331,PAYLOAD,MEDIUM,THAI,1993-12-18,FRGUI,,5177491,322305504,0 THAICOM 1,1 22931U 93078B   26126.55134067 -.00000068  00000-0  00000+0 0  9996,2 22931  11.8475  35.1255 0004175 226.8947 352.9939  0.99184923 45757,22931,A05434,-,22931,1993-078,C,C AM,Star 30BP S/N 068A,1993 Dec 18,S22931,THAIC,T,1993 Dec 21 0943?,Attached to S22931 Thaicom 1,-,-,-,-,-,-,-,-,-,-,22931
3.0,GENERATED VIA SPACE-TRACK.ORG API,2026-05-06T14:56:52,18 SPCS,RADUGA 23,1989-030A,EARTH,TEME,UTC,SGP4,2026-05-06T11:57:54.357120,1.00228534,0.0018768,11.8529,332.2623,207.4121,336.9721,0,U,19928,999,13443,0.00000000000000,-0.00000362,0.0000000000000,42176.861,1436.717,35877.884,35719.569,PAYLOAD,LARGE,CIS,1989-04-14,TTMTR,,5177402,322303392,0 RADUGA 23,1 19928U 89030A   26126.49854580 -.00000362  00000-0  00000+0 0  9990,2 19928  11.8529 332.2623 0018768 207.4121 336.9721  1.00228534134436,19928,S19928,-,19928,1989-030A,P,P,Raduga,1989 Apr 14,S19931,VVKOV,SU,1989 Apr 14 1044?,In Earth orbit,-,2026 May  5 ,    1436.706 ,   35719, ,   35877, , 11.85 , ,GEO/ID,19928
3.0,GENERATED VIA SPACE-TRACK.ORG API,2026-05-06T02:32:52,18 SPCS,ARABSAT 3A,1999-009A,EARTH,TEME,UTC,SGP4,2026-05-05T10:44:07.279872,1.00148412,0.00068124,11.8678,32.835,346.3168,210.5811,0,U,25638,999,9953,0.00000000000000,0.00000119,0.0000000000000,42199.353,1437.866,35849.966,35792.471,PAYLOAD,LARGE,AB,1999-02-26,FRGUI,,5176277,322216166,0 ARABSAT 3A,1 25638U 99009A   26125.44730648  .00000119  00000-0  00000-0 0  9994,2 25638  11.8678  32.8350 0006812 346.3168 210.5811  1.00148412 99531,25638,S25638,-,25638,1999-009A,P,P,Arabsat 3A,1999 Feb 26,S25640,ARAB,I-ARAB,1999 Feb 26 2304,In Earth orbit,-,2026 May  4 ,    1437.872 ,   35792, ,   35850, , 11.87 , ,GEO/ID,25638
3.0,GENERATED VIA SPACE-TRACK.ORG API,2026-05-06T14:56:52,18 SPCS,UFO 2 (USA 95),1993-056A,EARTH,TEME,UTC,SGP4,2026-05-06T05:51:38.708928,1.00269008,0.0009014,11.8809,3.7876,355.8441,341.0244,0,U,22787,999,11812,0.00000000000000,0.00000130,0.0000000000000,42165.51,1436.137,35825.383,35749.367,PAYLOAD,LARGE,US,1993-09-03,AFETR,,5177486,322305442,0 UFO 2 (USA 95),1 22787U 93056A   26126.24419802  .00000130  00000-0  00000+0 0  9999,2 22787  11.8809   3.7876 0009014 355.8441 341.0244  1.00269008118127,22787,S22787,-,22787,1993-056A,A,P,UHF F/O F2,1993 Sep  3,S22788,HCIE,US,1993 Sep  3 1145?,In Earth orbit,-,2026 May  4 ,    1436.146 ,   35749, ,   35825, , 11.88 , ,GEO/I,22787
3.0,GENERATED VIA SPACE-TRACK.ORG API,2026-05-06T10:08:52,18 SPCS,EUTE 48A (HB2),1996-067A,EARTH,TEME,UTC,SGP4,2026-05-06T04:14:35.437056,0.98380894,0.00029344,11.8859,36.0962,132.1986,47.9856,0,U,24665,999,10764,0.00000000000000,-0.00000075,0.0000000000000,42703.29,1463.699,36337.685,36312.624,PAYLOAD,LARGE,EUTE,1996-11-21,AFETR,,5176958,322265202,0 EUTE 48A (HB2),1 24665U 96067A   26126.17679904 -.00000075  00000-0  00000-0 0  9994,2 24665  11.8859  36.0962 0002934 132.1986  47.9856  0.98380894107647,24665,S24665,-,24665,1996-067A,P,P,EUTELSAT 48A,1996 Nov 21,S24666,EUTSA,F,1996 Nov 21 2115?,In Earth orbit,-,2026 May  4 ,    1463.691 ,   36312, ,   36337, , 11.88 , ,GEO/ID,24665
3.0,GENERATED VIA SPACE-TRACK.ORG API,2026-05-06T02:32:52,18 SPCS,ECHOSTAR 5,1999-050A,EARTH,TEME,UTC,SGP4,2026-05-05T20:55:12.000288,0.98744251,0.00042897,11.8901,36.4451,346.4109,238.6375,0,U,25913,999,9645,0.00000000000000,0.00000013,0.0000000000000,42598.466,1458.313,36238.605,36202.057,PAYLOAD,LARGE,US,1999-09-23,AFETR,,5176277,322216727,0 ECHOSTAR 5,1 25913U 99050A   26125.87166667  .00000013  00000-0  00000-0 0  9990,2 25913  11.8901  36.4451 0004290 346.4109 238.6375  0.98744251 96455,25913,S25913,-,25913,1999-050A,P,P,Echostar V,1999 Sep 23,S25914,DISHE,US,1999 Sep 23 0630,In Earth orbit,-,2026 May  4 ,    1458.308 ,   36201, ,   36238, , 11.89 , ,GEO/ID,25913
3.0,GENERATED VIA SPACE-TRACK.ORG API,2026-05-06T14:46:56,18 SPCS,EUTE 1-F1 (ECS 1),1983-058A,EARTH,TEME,UTC,SGP4,2026-05-05T18:00:34.432992,0.98871761,0.0008272,11.8912,330.0386,164.9955,194.9616,0,U,14128,999,4629,0.00000000000000,-0.00000093,0.0000000000000,42561.833,1456.432,36218.906,36148.491,PAYLOAD,LARGE,EUTE,1983-06-16,FRGUI,,5177257,322300577,0 EUTE 1-F1 (ECS 1),1 14128U 83058A   26125.75039853 -.00000093  00000-0  00000+0 0  9998,2 14128  11.8912 330.0386 0008272 164.9955 194.9616  0.98871761 46295,14128,S14128,-,14128,1983-058A,P,P,ECS 1,1983 Jun 16,S14151,ESA,I-ESA,1983 Jun 16 1215,In Earth orbit,-,2026 May  4 ,    1456.438 ,   36148, ,   36218, , 11.89 , ,GEO/ID,14128
3.0,GENERATED VIA SPACE-TRACK.ORG API,2026-05-06T14:46:56,18 SPCS,EUTE 1-F1 (ECS 1),1983-058A,EARTH,TEME,UTC,SGP4,2026-05-05T18:00:34.432992,0.98871761,0.0008272,11.8912,330.0386,164.9955,194.9616,0,U,14128,999,4629,0.00000000000000,-0.00000093,0.0000000000000,42561.833,1456.432,36218.906,36148.491,PAYLOAD,LARGE,EUTE,1983-06-16,FRGUI,,5177257,322300577,0 EUTE 1-F1 (ECS 1),1 14128U 83058A   26125.75039853 -.00000093  00000-0  00000+0 0  9998,2 14128  11.8912 330.0386 0008272 164.9955 194.9616  0.98871761 46295,14128,A03646,-,14128,1983-058,C,C AM,Mage 2,1983 Jun 16,S14128,ESA,I-ESA,1983 Jun 18 0052,Attached to S14128 ECS 1,-,-,-,-,-,-,-,-,-,-,14128
3.0,GENERATED VIA SPACE-TRACK.ORG API,2026-05-06T14:56:52,18 SPCS,ECHOSTAR 2,1996-055A,EARTH,TEME,UTC,SGP4,2026-05-06T05:52:59.917152,1.00342272,0.001065,11.9016,31.8988,85.8961,107.9786,0,U,24313,999,10859,0.00000000000000,-0.00000214,0.0000000000000,42144.983,1435.088,35811.733,35721.964,PAYLOAD,LARGE,US,1996-09-11,FRGUI,,5177531,322306515,0 ECHOSTAR 2,1 24313U 96055A   26126.24513793 -.00000214  00000-0  00000+0 0  9996,2 24313  11.9016  31.8988 0010650  85.8961 107.9786  1.00342272108591,24313,S24313,-,24313,1996-055A,P,P,Echostar II,1996 Sep 11,S24314,DISHE,US,1996 Sep 11 0021,In Earth orbit,-,2026 May  5 ,    1435.085 ,   35722, ,   35811, , 11.90 , ,GEO/ID,24313
3.0,GENERATED VIA SPACE-TRACK.ORG API,2026-05-06T14:56:52,18 SPCS,DIRECTV 3 (DBS/NIMIQ 3),1995-029A,EARTH,TEME,UTC,SGP4,2026-05-06T11:32:17.922336,0.99000373,0.0004632,11.929,35.528,303.0626,153.9506,0,U,23598,999,11235,0.00000000000000,-0.00000051,0.0000000000000,42524.964,1454.54,36166.527,36127.131,PAYLOAD,LARGE,US,1995-06-10,FRGUI,,5177512,322305265,0 DIRECTV 3 (DBS/NIMIQ 3),1 23598U 95029A   26126.48076299 -.00000051  00000-0  00000+0 0  9990,2 23598  11.9290  35.5280 0004632 303.0626 153.9506  0.99000373112351,23598,S23598,-,23598,1995-029A,P,P,Nimiq 3,1995 Jun 10,S23599,TCANL,CA,1995 Jun 10 0044?,In Earth orbit,-,2026 May  4 ,    1454.529 ,   36126, ,   36166, , 11.93 , ,GEO/ID,23598
3.0,GENERATED VIA SPACE-TRACK.ORG API,2026-05-06T10:08:52,18 SPCS,SIRIUS 2 (GE-1E),1997-071A,EARTH,TEME,UTC,SGP4,2026-05-06T01:05:51.866880,0.99408394,0.00032499,11.9398,34.2697,20.0656,173.0698,0,U,25049,999,10370,0.00000000000000,-0.00000215,0.0000000000000,42408.522,1448.57,36044.169,36016.605,PAYLOAD,LARGE,SWED,1997-11-11,FRGUI,,5176958,322265266,0 SIRIUS 2 (GE-1E),1 25049U 97071A   26126.04573920 -.00000215  00000-0  00000-0 0  9990,2 25049  11.9398  34.2697 0003250  20.0656 173.0698  0.99408394103704,25049,S25049,-,25049,1997-071A,P,P,Astra 5A,1997 Nov 12,S25052,SESS,S,1997 Nov 12 2209,In Earth orbit,-,2026 May  5 ,    1448.570 ,   36016, ,   36044, , 11.94 , ,GEO/ID,25049
3.0,GENERATED VIA SPACE-TRACK.ORG API,2026-05-06T14:56:52,18 SPCS,THOR 2A,1997-025A,EARTH,TEME,UTC,SGP4,2026-05-06T05:53:38.875776,0.98970743,0.0005163,11.9625,33.0058,322.9376,240.4083,0,U,24808,999,4566,0.00000000000000,-0.00000095,0.0000000000000,42533.451,1454.975,36177.276,36133.356,PAYLOAD,LARGE,NOR,1997-05-20,AFETR,,5177539,322306670,0 THOR 2A,1 24808U 97025A   26126.24558884 -.00000095  00000-0  00000+0 0  9990,2 24808  11.9625  33.0058 0005163 322.9376 240.4083  0.98970743 45663,24808,S24808,-,24808,1997-025A,P,P,Thor II,1997 May 20,S24810,TNOR,N,1997 May 20 2354,In Earth orbit,-,2026 May  4 ,    1454.966 ,   36133, ,   36176, , 11.96 , ,GEO/ID,24808
